[{"OBJECT_NAME":"TK-2","OBJECT_ID":"2022-031A","EPOCH":"2026-03-09T22:51:17.143200","MEAN_MOTION":15.02943491,"ECCENTRICITY":0.00164117,"INCLINATION":97.8366,"RA_OF_ASC_NODE":263.9365,"ARG_OF_PERICENTER":100.3205,"MEAN_ANOMALY":259.9871,"EPHEMERIS_TYPE":0,"CLASSIFICATION_TYPE":"U","NORAD_CAT_ID":52150,"ELEMENT_SET_NO":999,"REV_AT_EPOCH":21555,"BSTAR":0.00040164474,"MEAN_MOTION_DOT":5.349e-5,"MEAN_MOTION_DDOT":0},{"OBJECT_NAME":"STARLINK-34461","OBJECT_ID":"2025-129G","EPOCH":"2026-03-09T10:16:06.900096","MEAN_MOTION":14.98331937,"ECCENTRICITY":0.0003089,"INCLINATION":70.0007,"RA_OF_ASC_NODE":75.294,"ARG_OF_PERICENTER":266.5562,"MEAN_ANOMALY":93.5244,"EPHEMERIS_TYPE":0,"CLASSIFICATION_TYPE":"U","NORAD_CAT_ID":64418,"ELEMENT_SET_NO":999,"REV_AT_EPOCH":4124,"BSTAR":-5.079014e-5,"MEAN_MOTION_DOT":-6.99e-6,"MEAN_MOTION_DDOT":0}]
